{{Infobox planet
|width           = 25em
|background      = #FFFFC0 | name=小行星634
 | discoverer=奥古斯特·卡普夫
 | discovered=1907年5月12日
 | alt_names= 1907 ZN
 | named_after = Ute
 | mp_category=[[小行星带|主带小行星]]
 | epoch=2011年8月27日 ([[儒略日|JD]] 2453400.5)
 | eccentricity=.1868949077727592
 | semimajor=3.043499786907143AU
 | perihelion=2.47468517492672AU
 | inclination=12.29277017938196°
 | asc_node=133.4803877459983°
 | arg_peri=220.5774785017113°
 | mean_anomaly=122.6027292395283[[角度|°]]
 | period=1939.359582499662[[日|日]]<br/>5.31[[儒略年|儒略年]]
 | aphelion=3.612314398887566[[天文单位|AU]]		
 | avg_speed=未知
 | abs_magnitude=9.60
 | dimensions=69.44千米	
 | rotation=11.7554小时
 | albedo=0.0530
 | mass=未知
 | density=未知
 | surface_grav=未知
 | escape_velocity=未知
 | spectral_type=[[X-型小行星|X型]]
 | single_temperature=未知}}

'''小行星634'''（[[英语|英语]]：'''634 Ute'''）是一颗[[X-型小行星|X型]][[小行星带|主带小行星]]，于1907年5月12日由[[德国|德国]][[天文学家|天文学家]][[奥古斯特·卡普夫|奥古斯特·卡普夫]]在[[海德堡|海德堡]]<ref>[http://ssd.jpl.nasa.gov/sbdb.cgi?sstr=634%20Ute;orb=1;cov=0;log=0;cad=0#orb JPL Small-Body Database Browser]</ref>。

小行星634以发现者的朋友Ute命名。

==参考资料==
{{reflist}}

{{Minor Planet Number|[[小行星633|633 Zelima]]|[[小行星635|635 Vundtia]]}}
{{Beltasteroid-stub}}
[[Category:小行星带天体|Category:小行星带天体]]
[[Category:1907年发现的小行星|Category:1907年发现的小行星]]
[[Category:以人名命名的小行星|Category:以人名命名的小行星]]
[[Category:X-型小行星|Category:X-型小行星]]